[{"OBJECT_NAME":"STARLINK-31264","OBJECT_ID":"2024-017V","EPOCH":"2026-03-09T22:19:04.967904","MEAN_MOTION":15.30190428,"ECCENTRICITY":3.161e-5,"INCLINATION":53.1607,"RA_OF_ASC_NODE":292.7843,"ARG_OF_PERICENTER":124.7178,"MEAN_ANOMALY":235.3852,"EPHEMERIS_TYPE":0,"CLASSIFICATION_TYPE":"U","NORAD_CAT_ID":58845,"ELEMENT_SET_NO":999,"REV_AT_EPOCH":11881,"BSTAR":-8.818057e-6,"MEAN_MOTION_DOT":-6.2e-6,"MEAN_MOTION_DDOT":0},{"OBJECT_NAME":"COSMOS 2588","OBJECT_ID":"2025-109A","EPOCH":"2026-03-09T19:28:59.107008","MEAN_MOTION":15.29122656,"ECCENTRICITY":0.0005019,"INCLINATION":72.9704,"RA_OF_ASC_NODE":73.5401,"ARG_OF_PERICENTER":308.678,"MEAN_ANOMALY":51.3966,"EPHEMERIS_TYPE":0,"CLASSIFICATION_TYPE":"U","NORAD_CAT_ID":64095,"ELEMENT_SET_NO":999,"REV_AT_EPOCH":4442,"BSTAR":0.00032611,"MEAN_MOTION_DOT":9.169e-5,"MEAN_MOTION_DDOT":0}]
